STARLINK-32393          
1 61862U 24202T   26068.47224197  .00000327  00000+0  21414-4 0  9998
2 61862  43.0016 239.2823 0001732 279.9745  80.0911 15.27579329 75308
HERMES-3                
1 63835U 25052BR  26068.93751242  .00020316  00000+0  69958-3 0  9995
2 63835  97.3987 324.6131 0007993 112.9583 247.2502 15.30039785 54863
